{
  "type": "FeatureCollection",
  "features": [
    {
      "type": "Feature",
      "properties": {
        "norad_id": 66767,
        "name": "TRANSPORTER-15DF",
        "group": "last-30-days",
        "lat": -78.89362136365996,
        "lon": 113.42225605174109,
        "alt_km": 519.5297014288617,
        "timestamp": "2025-12-26T03:50:10.807391+00:00",
        "meta_object_name": "TRANSPORTER-15DF",
        "meta_object_id": "2025-276DF",
        "meta_epoch": "2025-12-25T18:42:21.525120",
        "meta_mean_motion": 15.18355628,
        "meta_eccentricity": 0.0002047,
        "meta_inclination": 97.4364,
        "meta_ra_of_asc_node": 71.3387,
        "meta_arg_of_pericenter": 86.355,
        "meta_mean_anomaly": 273.7918,
        "meta_ephemeris_type": 0,
        "meta_classification_type": "U",
        "meta_norad_cat_id": 66767,
        "meta_element_set_no": 999,
        "meta_rev_at_epoch": 410,
        "meta_bstar": 0.00026204,
        "meta_mean_motion_dot": 5.316e-05,
        "meta_mean_motion_ddot": 0,
        "tle_line1": "1 66767U 25276DF  25359.77941580  .00005316  00000+0  26204-3 0  9990",
        "tle_line2": "2 66767  97.4364  71.3387 0002047  86.3550 273.7918 15.18355628  4102"
      },
      "geometry": {
        "type": "Point",
        "coordinates": [
          113.42225605174109,
          -78.89362136365996
        ]
      }
    },
    {
      "type": "Feature",
      "properties": {
        "norad_id": 66768,
        "name": "TRANSPORTER-15DG",
        "group": "last-30-days",
        "lat": -66.68060055778528,
        "lon": 89.34877529643849,
        "alt_km": 518.5626264568391,
        "timestamp": "2025-12-26T03:50:10.807401+00:00",
        "meta_object_name": "TRANSPORTER-15DG",
        "meta_object_id": "2025-276DG",
        "meta_epoch": "2025-12-25T18:38:45.772224",
        "meta_mean_motion": 15.18568494,
        "meta_eccentricity": 0.000214,
        "meta_inclination": 97.435,
        "meta_ra_of_asc_node": 71.3378,
        "meta_arg_of_pericenter": 74.9698,
        "meta_mean_anomaly": 285.1773,
        "meta_ephemeris_type": 0,
        "meta_classification_type": "U",
        "meta_norad_cat_id": 66768,
        "meta_element_set_no": 999,
        "meta_rev_at_epoch": 410,
        "meta_bstar": 0.00053438,
        "meta_mean_motion_dot": 0.00010985,
        "meta_mean_motion_ddot": 0,
        "tle_line1": "1 66768U 25276DG  25359.77691866  .00010985  00000+0  53438-3 0  9997",
        "tle_line2": "2 66768  97.4350  71.3378 0002140  74.9698 285.1773 15.18568494  4101"
      },
      "geometry": {
        "type": "Point",
        "coordinates": [
          89.34877529643849,
          -66.68060055778528
        ]
      }
    },
    {
      "type": "Feature",
      "properties": {
        "norad_id": 66769,
        "name": "TRANSPORTER-15DH",
        "group": "last-30-days",
        "lat": -72.49596315639876,
        "lon": 96.21486570955696,
        "alt_km": 519.7494941421155,
        "timestamp": "2025-12-26T03:50:10.807411+00:00",
        "meta_object_name": "TRANSPORTER-15DH",
        "meta_object_id": "2025-276DH",
        "meta_epoch": "2025-12-25T18:40:22.706976",
        "meta_mean_motion": 15.18438115,
        "meta_eccentricity": 0.0002738,
        "meta_inclination": 97.4411,
        "meta_ra_of_asc_node": 71.3565,
        "meta_arg_of_pericenter": 102.3679,
        "meta_mean_anomaly": 257.7862,
        "meta_ephemeris_type": 0,
        "meta_classification_type": "U",
        "meta_norad_cat_id": 66769,
        "meta_element_set_no": 999,
        "meta_rev_at_epoch": 410,
        "meta_bstar": 0.00028657,
        "meta_mean_motion_dot": 5.834e-05,
        "meta_mean_motion_ddot": 0,
        "tle_line1": "1 66769U 25276DH  25359.77804059  .00005834  00000+0  28657-3 0  9990",
        "tle_line2": "2 66769  97.4411  71.3565 0002738 102.3679 257.7862 15.18438115  4106"
      },
      "geometry": {
        "type": "Point",
        "coordinates": [
          96.21486570955696,
          -72.49596315639876
        ]
      }
    },
    {
      "type": "Feature",
      "properties": {
        "norad_id": 66770,
        "name": "TRANSPORTER-15DJ",
        "group": "last-30-days",
        "lat": -71.07763878855185,
        "lon": 94.16557416409437,
        "alt_km": 520.1894037320253,
        "timestamp": "2025-12-26T03:50:10.807421+00:00",
        "meta_object_name": "TRANSPORTER-15DJ",
        "meta_object_id": "2025-276DJ",
        "meta_epoch": "2025-12-25T17:05:03.917760",
        "meta_mean_motion": 15.18411636,
        "meta_eccentricity": 0.0003323,
        "meta_inclination": 97.4444,
        "meta_ra_of_asc_node": 71.3028,
        "meta_arg_of_pericenter": 116.9373,
        "meta_mean_anomaly": 243.2201,
        "meta_ephemeris_type": 0,
        "meta_classification_type": "U",
        "meta_norad_cat_id": 66770,
        "meta_element_set_no": 999,
        "meta_rev_at_epoch": 409,
        "meta_bstar": 0.00055773,
        "meta_mean_motion_dot": 0.00011418,
        "meta_mean_motion_ddot": 0,
        "tle_line1": "1 66770U 25276DJ  25359.71185090  .00011418  00000+0  55773-3 0  9997",
        "tle_line2": "2 66770  97.4444  71.3028 0003323 116.9373 243.2201 15.18411636  4095"
      },
      "geometry": {
        "type": "Point",
        "coordinates": [
          94.16557416409437,
          -71.07763878855185
        ]
      }
    },
    {
      "type": "Feature",
      "properties": {
        "norad_id": 66771,
        "name": "TRANSPORTER-15DK",
        "group": "last-30-days",
        "lat": -67.97435943921064,
        "lon": 90.59848062162055,
        "alt_km": 519.7098142167206,
        "timestamp": "2025-12-26T03:50:10.807435+00:00",
        "meta_object_name": "TRANSPORTER-15DK",
        "meta_object_id": "2025-276DK",
        "meta_epoch": "2025-12-25T17:04:13.190592",
        "meta_mean_motion": 15.18506181,
        "meta_eccentricity": 0.0003051,
        "meta_inclination": 97.4437,
        "meta_ra_of_asc_node": 71.3012,
        "meta_arg_of_pericenter": 109.2122,
        "meta_mean_anomaly": 250.9443,
        "meta_ephemeris_type": 0,
        "meta_classification_type": "U",
        "meta_norad_cat_id": 66771,
        "meta_element_set_no": 999,
        "meta_rev_at_epoch": 409,
        "meta_bstar": 0.00048639,
        "meta_mean_motion_dot": 9.974e-05,
        "meta_mean_motion_ddot": 0,
        "tle_line1": "1 66771U 25276DK  25359.71126378  .00009974  00000+0  48639-3 0  9999",
        "tle_line2": "2 66771  97.4437  71.3012 0003051 109.2122 250.9443 15.18506181  4099"
      },
      "geometry": {
        "type": "Point",
        "coordinates": [
          90.59848062162055,
          -67.97435943921064
        ]
      }
    },
    {
      "type": "Feature",
      "properties": {
        "norad_id": 66772,
        "name": "TRANSPORTER-15DL",
        "group": "last-30-days",
        "lat": -53.291453253420634,
        "lon": 81.8432824416397,
        "alt_km": 518.4081252333935,
        "timestamp": "2025-12-26T03:50:10.807449+00:00",
        "meta_object_name": "TRANSPORTER-15DL",
        "meta_object_id": "2025-276DL",
        "meta_epoch": "2025-12-25T18:35:09.441312",
        "meta_mean_motion": 15.1873182,
        "meta_eccentricity": 0.0002911,
        "meta_inclination": 97.4426,
        "meta_ra_of_asc_node": 71.3662,
        "meta_arg_of_pericenter": 96.7851,
        "meta_mean_anomaly": 263.3715,
        "meta_ephemeris_type": 0,
        "meta_classification_type": "U",
        "meta_norad_cat_id": 66772,
        "meta_element_set_no": 999,
        "meta_rev_at_epoch": 410,
        "meta_bstar": 0.00052535,
        "meta_mean_motion_dot": 0.0001085,
        "meta_mean_motion_ddot": 0,
        "tle_line1": "1 66772U 25276DL  25359.77441483  .00010850  00000+0  52535-3 0  9998",
        "tle_line2": "2 66772  97.4426  71.3662 0002911  96.7851 263.3715 15.18731820  4104"
      },
      "geometry": {
        "type": "Point",
        "coordinates": [
          81.8432824416397,
          -53.291453253420634
        ]
      }
    },
    {
      "type": "Feature",
      "properties": {
        "norad_id": 66773,
        "name": "TRANSPORTER-15DM",
        "group": "last-30-days",
        "lat": -61.43016091529322,
        "lon": 85.63150324256912,
        "alt_km": 519.3863214352868,
        "timestamp": "2025-12-26T03:50:10.807459+00:00",
        "meta_object_name": "TRANSPORTER-15DM",
        "meta_object_id": "2025-276DM",
        "meta_epoch": "2025-12-25T17:02:25.533600",
        "meta_mean_motion": 15.18562173,
        "meta_eccentricity": 0.0003184,
        "meta_inclination": 97.4425,
        "meta_ra_of_asc_node": 71.2985,
        "meta_arg_of_pericenter": 96.926,
        "meta_mean_anomaly": 263.2336,
        "meta_ephemeris_type": 0,
        "meta_classification_type": "U",
        "meta_norad_cat_id": 66773,
        "meta_element_set_no": 999,
        "meta_rev_at_epoch": 409,
        "meta_bstar": 0.00047994,
        "meta_mean_motion_dot": 9.856e-05,
        "meta_mean_motion_ddot": 0,
        "tle_line1": "1 66773U 25276DM  25359.71001775  .00009856  00000+0  47994-3 0  9996",
        "tle_line2": "2 66773  97.4425  71.2985 0003184  96.9260 263.2336 15.18562173  4099"
      },
      "geometry": {
        "type": "Point",
        "coordinates": [
          85.63150324256912,
          -61.43016091529322
        ]
      }
    }
  ]
}